[{"CCSDS_OMM_VERS":"2.0","COMMENT":"GENERATED VIA SPACE-TRACK.ORG API","CREATION_DATE":"2017-03-17T15:59:02","ORIGINATOR":"18 SPCS","OBJECT_NAME":"GALILEO-FM2","OBJECT_ID":"2011-060B","CENTER_NAME":"EARTH","REF_FRAME":"TEME","TIME_SYSTEM":"UTC","MEAN_ELEMENT_THEORY":"SGP4","EPOCH":"2017-03-16T18:13:41.079072","MEAN_MOTION":"1.70476055","ECCENTRICITY":"0.00065850","INCLINATION":"55.7587","RA_OF_ASC_NODE":"74.2972","ARG_OF_PERICENTER":"304.6346","MEAN_ANOMALY":"237.7700","EPHEMERIS_TYPE":"0","CLASSIFICATION_TYPE":"U","NORAD_CAT_ID":"37847","ELEMENT_SET_NO":"999","REV_AT_EPOCH":"3363","BSTAR":"0.00000000000000","MEAN_MOTION_DOT":"-0.00000016","MEAN_MOTION_DDOT":"0.0000000000000","SEMIMAJOR_AXIS":"29600.082","PERIOD":"844.693","APOAPSIS":"23241.438","PERIAPSIS":"23202.455","OBJECT_TYPE":"PAYLOAD","RCS_SIZE":"LARGE","COUNTRY_CODE":"ESA","LAUNCH_DATE":"2011-10-21","SITE":"FRGUI","DECAY_DATE":null,"FILE":"2165120","GP_ID":"110448482","TLE_LINE0":"0 GALILEO-FM2","TLE_LINE1":"1 37847U 11060B   17075.75950323 -.00000016 +00000-0 +00000-0 0  9999","TLE_LINE2":"2 37847 055.7587 074.2972 0006585 304.6346 237.7700 01.70476055033635"},{"CCSDS_OMM_VERS":"2.0","COMMENT":"GENERATED VIA SPACE-TRACK.ORG API","CREATION_DATE":"2017-03-18T17:24:55","ORIGINATOR":"18 SPCS","OBJECT_NAME":"GALILEO-FM2","OBJECT_ID":"2011-060B","CENTER_NAME":"EARTH","REF_FRAME":"TEME","TIME_SYSTEM":"UTC","MEAN_ELEMENT_THEORY":"SGP4","EPOCH":"2017-03-17T01:11:41.739360","MEAN_MOTION":"1.70476060","ECCENTRICITY":"0.00065860","INCLINATION":"55.7589","RA_OF_ASC_NODE":"74.2890","ARG_OF_PERICENTER":"304.6514","MEAN_ANOMALY":"55.9093","EPHEMERIS_TYPE":"0","CLASSIFICATION_TYPE":"U","NORAD_CAT_ID":"37847","ELEMENT_SET_NO":"999","REV_AT_EPOCH":"3352","BSTAR":"0.00000000000000","MEAN_MOTION_DOT":"-0.00000015","MEAN_MOTION_DDOT":"0.0000000000000","SEMIMAJOR_AXIS":"29600.081","PERIOD":"844.693","APOAPSIS":"23241.441","PERIAPSIS":"23202.451","OBJECT_TYPE":"PAYLOAD","RCS_SIZE":"LARGE","COUNTRY_CODE":"ESA","LAUNCH_DATE":"2011-10-21","SITE":"FRGUI","DECAY_DATE":null,"FILE":"2165121","GP_ID":"110461569","TLE_LINE0":"0 GALILEO-FM2","TLE_LINE1":"1 37847U 11060B   17076.04978865 -.00000015 +00000-0 +00000-0 0  9992","TLE_LINE2":"2 37847 055.7589 074.2890 0006586 304.6514 055.9093 01.70476060033523"},{"CCSDS_OMM_VERS":"2.0","COMMENT":"GENERATED VIA SPACE-TRACK.ORG API","CREATION_DATE":"2017-03-22T16:21:28","ORIGINATOR":"18 SPCS","OBJECT_NAME":"GALILEO-FM2","OBJECT_ID":"2011-060B","CENTER_NAME":"EARTH","REF_FRAME":"TEME","TIME_SYSTEM":"UTC","MEAN_ELEMENT_THEORY":"SGP4","EPOCH":"2017-03-21T08:36:36.558144","MEAN_MOTION":"1.70476042","ECCENTRICITY":"0.00065930","INCLINATION":"55.7625","RA_OF_ASC_NODE":"74.1684","ARG_OF_PERICENTER":"305.5845","MEAN_ANOMALY":"179.5087","EPHEMERIS_TYPE":"0","CLASSIFICATION_TYPE":"U","NORAD_CAT_ID":"37847","ELEMENT_SET_NO":"999","REV_AT_EPOCH":"3371","BSTAR":"0.00000000000000","MEAN_MOTION_DOT":"0.00000008","MEAN_MOTION_DDOT":"0.0000000000000","SEMIMAJOR_AXIS":"29600.083","PERIOD":"844.693","APOAPSIS":"23241.464","PERIAPSIS":"23202.433","OBJECT_TYPE":"PAYLOAD","RCS_SIZE":"LARGE","COUNTRY_CODE":"ESA","LAUNCH_DATE":"2011-10-21","SITE":"FRGUI","DECAY_DATE":null,"FILE":"2165125","GP_ID":"110512775","TLE_LINE0":"0 GALILEO-FM2","TLE_LINE1":"1 37847U 11060B   17080.35875646 +.00000008 +00000-0 +00000-0 0  9995","TLE_LINE2":"2 37847 055.7625 074.1684 0006593 305.5845 179.5087 01.70476042033716"},{"CCSDS_OMM_VERS":"2.0","COMMENT":"GENERATED VIA SPACE-TRACK.ORG API","CREATION_DATE":"2017-03-23T16:03:40","ORIGINATOR":"18 SPCS","OBJECT_NAME":"GALILEO-FM2","OBJECT_ID":"2011-060B","CENTER_NAME":"EARTH","REF_FRAME":"TEME","TIME_SYSTEM":"UTC","MEAN_ELEMENT_THEORY":"SGP4","EPOCH":"2017-03-22T12:32:42.294336","MEAN_MOTION":"1.70476012","ECCENTRICITY":"0.00065960","INCLINATION":"55.7635","RA_OF_ASC_NODE":"74.1358","ARG_OF_PERICENTER":"305.8869","MEAN_ANOMALY":"173.5577","EPHEMERIS_TYPE":"0","CLASSIFICATION_TYPE":"U","NORAD_CAT_ID":"37847","ELEMENT_SET_NO":"999","REV_AT_EPOCH":"3361","BSTAR":"0.00000000000000","MEAN_MOTION_DOT":"0.00000013","MEAN_MOTION_DDOT":"0.0000000000000","SEMIMAJOR_AXIS":"29600.087","PERIOD":"844.693","APOAPSIS":"23241.476","PERIAPSIS":"23202.427","OBJECT_TYPE":"PAYLOAD","RCS_SIZE":"LARGE","COUNTRY_CODE":"ESA","LAUNCH_DATE":"2011-10-21","SITE":"FRGUI","DECAY_DATE":null,"FILE":"2165126","GP_ID":"110525449","TLE_LINE0":"0 GALILEO-FM2","TLE_LINE1":"1 37847U 11060B   17081.52271174 +.00000013 +00000-0 +00000-0 0  9997","TLE_LINE2":"2 37847 055.7635 074.1358 0006596 305.8869 173.5577 01.70476012033611"},{"CCSDS_OMM_VERS":"2.0","COMMENT":"GENERATED VIA SPACE-TRACK.ORG API","CREATION_DATE":"2017-03-26T15:34:20","ORIGINATOR":"18 SPCS","OBJECT_NAME":"GALILEO-FM2","OBJECT_ID":"2011-060B","CENTER_NAME":"EARTH","REF_FRAME":"TEME","TIME_SYSTEM":"UTC","MEAN_ELEMENT_THEORY":"SGP4","EPOCH":"2017-03-24T22:36:47.298240","MEAN_MOTION":"1.70475932","ECCENTRICITY":"0.00066100","INCLINATION":"55.7654","RA_OF_ASC_NODE":"74.0680","ARG_OF_PERICENTER":"306.6713","MEAN_ANOMALY":"217.6884","EPHEMERIS_TYPE":"0","CLASSIFICATION_TYPE":"U","NORAD_CAT_ID":"37847","ELEMENT_SET_NO":"999","REV_AT_EPOCH":"3377","BSTAR":"0.00000000000000","MEAN_MOTION_DOT":"0.00000019","MEAN_MOTION_DDOT":"0.0000000000000","SEMIMAJOR_AXIS":"29600.096","PERIOD":"844.694","APOAPSIS":"23241.527","PERIAPSIS":"23202.395","OBJECT_TYPE":"PAYLOAD","RCS_SIZE":"LARGE","COUNTRY_CODE":"ESA","LAUNCH_DATE":"2011-10-21","SITE":"FRGUI","DECAY_DATE":null,"FILE":"2165129","GP_ID":"110565052","TLE_LINE0":"0 GALILEO-FM2","TLE_LINE1":"1 37847U 11060B   17083.94221410 +.00000019 +00000-0 +00000-0 0  9999","TLE_LINE2":"2 37847 055.7654 074.0680 0006610 306.6713 217.6884 01.70475932033771"},{"CCSDS_OMM_VERS":"2.0","COMMENT":"GENERATED VIA SPACE-TRACK.ORG API","CREATION_DATE":"2017-03-29T16:03:11","ORIGINATOR":"18 SPCS","OBJECT_NAME":"GALILEO-FM2","OBJECT_ID":"2011-060B","CENTER_NAME":"EARTH","REF_FRAME":"TEME","TIME_SYSTEM":"UTC","MEAN_ELEMENT_THEORY":"SGP4","EPOCH":"2017-03-28T12:32:13.526592","MEAN_MOTION":"1.70475826","ECCENTRICITY":"0.00066160","INCLINATION":"55.7684","RA_OF_ASC_NODE":"73.9677","ARG_OF_PERICENTER":"307.5172","MEAN_ANOMALY":"254.0878","EPHEMERIS_TYPE":"0","CLASSIFICATION_TYPE":"U","NORAD_CAT_ID":"37847","ELEMENT_SET_NO":"999","REV_AT_EPOCH":"3383","BSTAR":"0.00000000000000","MEAN_MOTION_DOT":"0.00000009","MEAN_MOTION_DDOT":"0.0000000000000","SEMIMAJOR_AXIS":"29600.108","PERIOD":"844.694","APOAPSIS":"23241.557","PERIAPSIS":"23202.390","OBJECT_TYPE":"PAYLOAD","RCS_SIZE":"LARGE","COUNTRY_CODE":"ESA","LAUNCH_DATE":"2011-10-21","SITE":"FRGUI","DECAY_DATE":null,"FILE":"2165132","GP_ID":"110602902","TLE_LINE0":"0 GALILEO-FM2","TLE_LINE1":"1 37847U 11060B   17087.52237878 +.00000009 +00000-0 +00000-0 0  9991","TLE_LINE2":"2 37847 055.7684 073.9677 0006616 307.5172 254.0878 01.70475826033830"},{"CCSDS_OMM_VERS":"2.0","COMMENT":"GENERATED VIA SPACE-TRACK.ORG API","CREATION_DATE":"2017-04-02T15:07:04","ORIGINATOR":"18 SPCS","OBJECT_NAME":"GALILEO-FM2","OBJECT_ID":"2011-060B","CENTER_NAME":"EARTH","REF_FRAME":"TEME","TIME_SYSTEM":"UTC","MEAN_ELEMENT_THEORY":"SGP4","EPOCH":"2017-04-01T10:06:52.157664","MEAN_MOTION":"1.70475783","ECCENTRICITY":"0.00066080","INCLINATION":"55.7716","RA_OF_ASC_NODE":"73.8586","ARG_OF_PERICENTER":"308.4746","MEAN_ANOMALY":"126.0888","EPHEMERIS_TYPE":"0","CLASSIFICATION_TYPE":"U","NORAD_CAT_ID":"37847","ELEMENT_SET_NO":"999","REV_AT_EPOCH":"3390","BSTAR":"0.00000000000000","MEAN_MOTION_DOT":"-0.00000005","MEAN_MOTION_DDOT":"0.0000000000000","SEMIMAJOR_AXIS":"29600.113","PERIOD":"844.694","APOAPSIS":"23241.538","PERIAPSIS":"23202.418","OBJECT_TYPE":"PAYLOAD","RCS_SIZE":"LARGE","COUNTRY_CODE":"ESA","LAUNCH_DATE":"2011-10-21","SITE":"FRGUI","DECAY_DATE":null,"FILE":"2165136","GP_ID":"110654209","TLE_LINE0":"0 GALILEO-FM2","TLE_LINE1":"1 37847U 11060B   17091.42143701 -.00000005 +00000-0 +00000-0 0  9993","TLE_LINE2":"2 37847 055.7716 073.8586 0006608 308.4746 126.0888 01.70475783033901"},{"CCSDS_OMM_VERS":"2.0","COMMENT":"GENERATED VIA SPACE-TRACK.ORG API","CREATION_DATE":"2017-04-04T15:55:19","ORIGINATOR":"18 SPCS","OBJECT_NAME":"GALILEO-FM2","OBJECT_ID":"2011-060B","CENTER_NAME":"EARTH","REF_FRAME":"TEME","TIME_SYSTEM":"UTC","MEAN_ELEMENT_THEORY":"SGP4","EPOCH":"2017-04-03T22:34:02.880768","MEAN_MOTION":"1.70475812","ECCENTRICITY":"0.00066100","INCLINATION":"55.7737","RA_OF_ASC_NODE":"73.7879","ARG_OF_PERICENTER":"308.8577","MEAN_ANOMALY":"231.6074","EPHEMERIS_TYPE":"0","CLASSIFICATION_TYPE":"U","NORAD_CAT_ID":"37847","ELEMENT_SET_NO":"999","REV_AT_EPOCH":"3382","BSTAR":"0.00000000000000","MEAN_MOTION_DOT":"-0.00000007","MEAN_MOTION_DDOT":"0.0000000000000","SEMIMAJOR_AXIS":"29600.110","PERIOD":"844.694","APOAPSIS":"23241.540","PERIAPSIS":"23202.409","OBJECT_TYPE":"PAYLOAD","RCS_SIZE":"LARGE","COUNTRY_CODE":"ESA","LAUNCH_DATE":"2011-10-21","SITE":"FRGUI","DECAY_DATE":null,"FILE":"2165138","GP_ID":"110680445","TLE_LINE0":"0 GALILEO-FM2","TLE_LINE1":"1 37847U 11060B   17093.94031112 -.00000007 +00000-0 +00000-0 0  9996","TLE_LINE2":"2 37847 055.7737 073.7879 0006610 308.8577 231.6074 01.70475812033821"}]